[{"OBJECT_NAME":"NUSAT-41 (C PAYNE-G)","OBJECT_ID":"2023-084N","EPOCH":"2026-03-09T21:55:54.837696","MEAN_MOTION":15.29680045,"ECCENTRICITY":0.00062175,"INCLINATION":97.5351,"RA_OF_ASC_NODE":204.1011,"ARG_OF_PERICENTER":322.2064,"MEAN_ANOMALY":37.8738,"EPHEMERIS_TYPE":0,"CLASSIFICATION_TYPE":"U","NORAD_CAT_ID":56944,"ELEMENT_SET_NO":999,"REV_AT_EPOCH":15260,"BSTAR":0.00059912824,"MEAN_MOTION_DOT":0.0001718,"MEAN_MOTION_DDOT":0},{"OBJECT_NAME":"STARLINK-36424","OBJECT_ID":"2026-005R","EPOCH":"2026-03-09T18:54:13.361760","MEAN_MOTION":15.28420197,"ECCENTRICITY":0.00029627,"INCLINATION":43.0032,"RA_OF_ASC_NODE":237.2444,"ARG_OF_PERICENTER":280.8187,"MEAN_ANOMALY":79.2331,"EPHEMERIS_TYPE":0,"CLASSIFICATION_TYPE":"U","NORAD_CAT_ID":67419,"ELEMENT_SET_NO":999,"REV_AT_EPOCH":871,"BSTAR":0.0011932429,"MEAN_MOTION_DOT":0.00033581,"MEAN_MOTION_DDOT":0}]
